CCSDS_OMM_VERS = 2.0
CREATION_DATE  = 
ORIGINATOR     = 

OBJECT_NAME    = STARLINK-36342
OBJECT_ID      = 2026-022B
CENTER_NAME    = EARTH
REF_FRAME      = TEME
TIME_SYSTEM    = UTC
MEAN_ELEMENT_THEORY = SGP/SGP4

EPOCH          = 2026-02-26T13:04:17.400576
MEAN_MOTION    = 15.75357054
ECCENTRICITY   = .00009698
INCLINATION    = 97.2826
RA_OF_ASC_NODE = 90.9596
ARG_OF_PERICENTER = 61.4380
MEAN_ANOMALY   = 298.6982

EPHEMERIS_TYPE = 0
CLASSIFICATION_TYPE = U
NORAD_CAT_ID   = 67649
ELEMENT_SET_NO = 999
REV_AT_EPOCH   = 379
BSTAR          = .23377077E-2
MEAN_MOTION_DOT = .366598E-2
MEAN_MOTION_DDOT = 0

CCSDS_OMM_VERS = 2.0
CREATION_DATE  = 
ORIGINATOR     = 

OBJECT_NAME    = STARLINK-36703
OBJECT_ID      = 2026-022C
CENTER_NAME    = EARTH
REF_FRAME      = TEME
TIME_SYSTEM    = UTC
MEAN_ELEMENT_THEORY = SGP/SGP4

EPOCH          = 2026-02-26T13:02:45.923712
MEAN_MOTION    = 15.75256601
ECCENTRICITY   = .00017645
INCLINATION    = 97.2837
RA_OF_ASC_NODE = 90.9617
ARG_OF_PERICENTER = 76.5384
MEAN_ANOMALY   = 283.6078

EPHEMERIS_TYPE = 0
CLASSIFICATION_TYPE = U
NORAD_CAT_ID   = 67650
ELEMENT_SET_NO = 999
REV_AT_EPOCH   = 379
BSTAR          = .24295503E-2
MEAN_MOTION_DOT = .379945E-2
MEAN_MOTION_DDOT = 0

CCSDS_OMM_VERS = 2.0
CREATION_DATE  = 
ORIGINATOR     = 

OBJECT_NAME    = STARLINK-36696
OBJECT_ID      = 2026-022D
CENTER_NAME    = EARTH
REF_FRAME      = TEME
TIME_SYSTEM    = UTC
MEAN_ELEMENT_THEORY = SGP/SGP4

EPOCH          = 2026-02-26T13:00:11.955456
MEAN_MOTION    = 15.75392050
ECCENTRICITY   = .00041357
INCLINATION    = 97.2833
RA_OF_ASC_NODE = 90.9641
ARG_OF_PERICENTER = 272.7995
MEAN_ANOMALY   = 87.2797

EPHEMERIS_TYPE = 0
CLASSIFICATION_TYPE = U
NORAD_CAT_ID   = 67651
ELEMENT_SET_NO = 999
REV_AT_EPOCH   = 379
BSTAR          = .23579109E-2
MEAN_MOTION_DOT = .370538E-2
MEAN_MOTION_DDOT = 0

CCSDS_OMM_VERS = 2.0
CREATION_DATE  = 
ORIGINATOR     = 

OBJECT_NAME    = STARLINK-36699
OBJECT_ID      = 2026-022E
CENTER_NAME    = EARTH
REF_FRAME      = TEME
TIME_SYSTEM    = UTC
MEAN_ELEMENT_THEORY = SGP/SGP4

EPOCH          = 2026-02-26T12:59:12.191712
MEAN_MOTION    = 15.75274188
ECCENTRICITY   = .00005125
INCLINATION    = 97.2834
RA_OF_ASC_NODE = 90.9648
ARG_OF_PERICENTER = 58.1443
MEAN_ANOMALY   = 301.9872

EPHEMERIS_TYPE = 0
CLASSIFICATION_TYPE = U
NORAD_CAT_ID   = 67652
ELEMENT_SET_NO = 999
REV_AT_EPOCH   = 379
BSTAR          = .2193781E-2
MEAN_MOTION_DOT = .341793E-2
MEAN_MOTION_DDOT = 0

CCSDS_OMM_VERS = 2.0
CREATION_DATE  = 
ORIGINATOR     = 

OBJECT_NAME    = STARLINK-36694
OBJECT_ID      = 2026-022F
CENTER_NAME    = EARTH
REF_FRAME      = TEME
TIME_SYSTEM    = UTC
MEAN_ELEMENT_THEORY = SGP/SGP4

EPOCH          = 2026-02-26T02:15:18.125856
MEAN_MOTION    = 15.76136362
ECCENTRICITY   = .00007502
INCLINATION    = 97.2826
RA_OF_ASC_NODE = 90.5004
ARG_OF_PERICENTER = 27.3992
MEAN_ANOMALY   = 332.7314

EPHEMERIS_TYPE = 0
CLASSIFICATION_TYPE = U
NORAD_CAT_ID   = 67653
ELEMENT_SET_NO = 999
REV_AT_EPOCH   = 372
BSTAR          = .24715982E-2
MEAN_MOTION_DOT = .402648E-2
MEAN_MOTION_DDOT = 0

CCSDS_OMM_VERS = 2.0
CREATION_DATE  = 
ORIGINATOR     = 

OBJECT_NAME    = STARLINK-36620
OBJECT_ID      = 2026-022G
CENTER_NAME    = EARTH
REF_FRAME      = TEME
TIME_SYSTEM    = UTC
MEAN_ELEMENT_THEORY = SGP/SGP4

EPOCH          = 2026-02-26T12:55:38.681760
MEAN_MOTION    = 15.75342064
ECCENTRICITY   = .00005607
INCLINATION    = 97.2833
RA_OF_ASC_NODE = 90.9676
ARG_OF_PERICENTER = 187.7124
MEAN_ANOMALY   = 172.4133

EPHEMERIS_TYPE = 0
CLASSIFICATION_TYPE = U
NORAD_CAT_ID   = 67654
ELEMENT_SET_NO = 999
REV_AT_EPOCH   = 379
BSTAR          = .16899173E-2
MEAN_MOTION_DOT = .261526E-2
MEAN_MOTION_DDOT = 0

CCSDS_OMM_VERS = 2.0
CREATION_DATE  = 
ORIGINATOR     = 

OBJECT_NAME    = STARLINK-36720
OBJECT_ID      = 2026-022H
CENTER_NAME    = EARTH
REF_FRAME      = TEME
TIME_SYSTEM    = UTC
MEAN_ELEMENT_THEORY = SGP/SGP4

EPOCH          = 2026-02-26T12:53:06.934848
MEAN_MOTION    = 15.75338751
ECCENTRICITY   = .00018386
INCLINATION    = 97.2836
RA_OF_ASC_NODE = 90.9704
ARG_OF_PERICENTER = 58.1531
MEAN_ANOMALY   = 301.9913

EPHEMERIS_TYPE = 0
CLASSIFICATION_TYPE = U
NORAD_CAT_ID   = 67655
ELEMENT_SET_NO = 999
REV_AT_EPOCH   = 379
BSTAR          = .24973894E-2
MEAN_MOTION_DOT = .39253E-2
MEAN_MOTION_DDOT = 0

CCSDS_OMM_VERS = 2.0
CREATION_DATE  = 
ORIGINATOR     = 

OBJECT_NAME    = STARLINK-36688
OBJECT_ID      = 2026-022J
CENTER_NAME    = EARTH
REF_FRAME      = TEME
TIME_SYSTEM    = UTC
MEAN_ELEMENT_THEORY = SGP/SGP4

EPOCH          = 2026-02-26T12:52:04.900512
MEAN_MOTION    = 15.75312462
ECCENTRICITY   = .00016178
INCLINATION    = 97.2834
RA_OF_ASC_NODE = 90.9703
ARG_OF_PERICENTER = 302.9852
MEAN_ANOMALY   = 57.1258

EPHEMERIS_TYPE = 0
CLASSIFICATION_TYPE = U
NORAD_CAT_ID   = 67656
ELEMENT_SET_NO = 999
REV_AT_EPOCH   = 379
BSTAR          = .19892005E-2
MEAN_MOTION_DOT = .309204E-2
MEAN_MOTION_DDOT = 0

CCSDS_OMM_VERS = 2.0
CREATION_DATE  = 
ORIGINATOR     = 

OBJECT_NAME    = STARLINK-36706
OBJECT_ID      = 2026-022K
CENTER_NAME    = EARTH
REF_FRAME      = TEME
TIME_SYSTEM    = UTC
MEAN_ELEMENT_THEORY = SGP/SGP4

EPOCH          = 2026-02-26T12:50:04.056288
MEAN_MOTION    = 15.75322125
ECCENTRICITY   = .00020471
INCLINATION    = 97.2841
RA_OF_ASC_NODE = 90.9725
ARG_OF_PERICENTER = 56.1619
MEAN_ANOMALY   = 303.9841

EPHEMERIS_TYPE = 0
CLASSIFICATION_TYPE = U
NORAD_CAT_ID   = 67657
ELEMENT_SET_NO = 999
REV_AT_EPOCH   = 379
BSTAR          = .23049117E-2
MEAN_MOTION_DOT = .36064E-2
MEAN_MOTION_DDOT = 0

CCSDS_OMM_VERS = 2.0
CREATION_DATE  = 
ORIGINATOR     = 

OBJECT_NAME    = STARLINK-36701
OBJECT_ID      = 2026-022L
CENTER_NAME    = EARTH
REF_FRAME      = TEME
TIME_SYSTEM    = UTC
MEAN_ELEMENT_THEORY = SGP/SGP4

EPOCH          = 2026-02-26T12:48:31.710240
MEAN_MOTION    = 15.75282691
ECCENTRICITY   = .00006383
INCLINATION    = 97.2831
RA_OF_ASC_NODE = 90.9735
ARG_OF_PERICENTER = 303.0277
MEAN_ANOMALY   = 57.0927

EPHEMERIS_TYPE = 0
CLASSIFICATION_TYPE = U
NORAD_CAT_ID   = 67658
ELEMENT_SET_NO = 999
REV_AT_EPOCH   = 379
BSTAR          = .16653949E-2
MEAN_MOTION_DOT = .256927E-2
MEAN_MOTION_DDOT = 0

CCSDS_OMM_VERS = 2.0
CREATION_DATE  = 
ORIGINATOR     = 

OBJECT_NAME    = STARLINK-36642
OBJECT_ID      = 2026-022M
CENTER_NAME    = EARTH
REF_FRAME      = TEME
TIME_SYSTEM    = UTC
MEAN_ELEMENT_THEORY = SGP/SGP4

EPOCH          = 2026-02-26T12:47:00.040704
MEAN_MOTION    = 15.75308350
ECCENTRICITY   = .00012324
INCLINATION    = 97.2830
RA_OF_ASC_NODE = 90.9754
ARG_OF_PERICENTER = 280.3190
MEAN_ANOMALY   = 79.7937

EPHEMERIS_TYPE = 0
CLASSIFICATION_TYPE = U
NORAD_CAT_ID   = 67659
ELEMENT_SET_NO = 999
REV_AT_EPOCH   = 379
BSTAR          = .19936127E-2
MEAN_MOTION_DOT = .309861E-2
MEAN_MOTION_DDOT = 0

CCSDS_OMM_VERS = 2.0
CREATION_DATE  = 
ORIGINATOR     = 

OBJECT_NAME    = STARLINK-36673
OBJECT_ID      = 2026-022N
CENTER_NAME    = EARTH
REF_FRAME      = TEME
TIME_SYSTEM    = UTC
MEAN_ELEMENT_THEORY = SGP/SGP4

EPOCH          = 2026-02-26T12:44:58.982208
MEAN_MOTION    = 15.75296784
ECCENTRICITY   = .00016746
INCLINATION    = 97.2844
RA_OF_ASC_NODE = 90.9771
ARG_OF_PERICENTER = 49.9056
MEAN_ANOMALY   = 310.2356

EPHEMERIS_TYPE = 0
CLASSIFICATION_TYPE = U
NORAD_CAT_ID   = 67660
ELEMENT_SET_NO = 999
REV_AT_EPOCH   = 379
BSTAR          = .1846006E-2
MEAN_MOTION_DOT = .285954E-2
MEAN_MOTION_DDOT = 0

