STARLINK-36342          
1 67649U 26022B   26057.54464584  .00366598  00000+0  23377-2 0  9994
2 67649  97.2826  90.9596 0000969  61.4380 298.6982 15.75357054  3797
STARLINK-36703          
1 67650U 26022C   26057.54358708  .00379945  00000+0  24296-2 0  9997
2 67650  97.2837  90.9617 0001764  76.5384 283.6078 15.75256601  3796
STARLINK-36696          
1 67651U 26022D   26057.54180504  .00370538  00000+0  23579-2 0  9997
2 67651  97.2833  90.9641 0004135 272.7995  87.2797 15.75392050  3798
STARLINK-36699          
1 67652U 26022E   26057.54111333  .00341793  00000+0  21938-2 0  9990
2 67652  97.2834  90.9648 0000512  58.1443 301.9872 15.75274188  3797
STARLINK-36694          
1 67653U 26022F   26057.09395979  .00402648  00000+0  24716-2 0  9995
2 67653  97.2826  90.5004 0000750  27.3992 332.7314 15.76136362  3720
STARLINK-36620          
1 67654U 26022G   26057.53864215  .00261526  00000+0  16899-2 0  9990
2 67654  97.2833  90.9676 0000560 187.7124 172.4133 15.75342064  3797
STARLINK-36720          
1 67655U 26022H   26057.53688582  .00392530  00000+0  24974-2 0  9995
2 67655  97.2836  90.9704 0001838  58.1531 301.9913 15.75338751  3798
STARLINK-36688          
1 67656U 26022J   26057.53616783  .00309204  00000+0  19892-2 0  9999
2 67656  97.2834  90.9703 0001617 302.9852  57.1258 15.75312462  3790
STARLINK-36706          
1 67657U 26022K   26057.53476917  .00360640  00000+0  23049-2 0  9993
2 67657  97.2841  90.9725 0002047  56.1619 303.9841 15.75322125  3797
STARLINK-36701          
1 67658U 26022L   26057.53370035  .00256927  00000+0  16654-2 0  9994
2 67658  97.2831  90.9735 0000638 303.0277  57.0927 15.75282691  3791
STARLINK-36642          
1 67659U 26022M   26057.53263936  .00309861  00000+0  19936-2 0  9998
2 67659  97.2830  90.9754 0001232 280.3190  79.7937 15.75308350  3797
STARLINK-36673          
1 67660U 26022N   26057.53123822  .00285954  00000+0  18460-2 0  9996
2 67660  97.2844  90.9771 0001674  49.9056 310.2356 15.75296784  3798
